IRIDIUM 119             
1 42959U 17061E   25185.95855080 -.00000017  00000+0 -13100-4 0  9993
2 42959  86.4004 170.3680 0002445  84.3476 275.7999 14.34217271405048
IRIDIUM 107             
1 42960U 17061F   25185.90780978  .00000213  00000+0  69111-4 0  9992
2 42960  86.3999 170.4082 0002404  75.9737 284.1726 14.34218372405045
IRIDIUM 136             
1 42962U 17061H   25185.94586520  .00000078  00000+0  20812-4 0  9999
2 42962  86.3999 170.3792 0002496  83.3587 276.7893 14.34218118405063
IRIDIUM 139             
1 42963U 17061J   25185.95220748  .00000027  00000+0  24663-5 0  9991
2 42963  86.4005 170.4330 0002187  80.1095 280.0347 14.34217638405077
IRIDIUM 125             
1 42964U 17061K   25185.93952385  .00000050  00000+0  10850-4 0  9997
2 42964  86.4002 170.4926 0002834  78.8333 281.3181 14.34217728405085
IRIDIUM 138             
1 43071U 17083B   25185.86925083  .00000024  00000+0  13997-5 0  9995
2 43071  86.3959 106.8991 0002634  86.6756 273.4741 14.34217679394350
